H1 CPF  1  DLR 2021 03 13 10  5722 technosat            
H2  1704205 6203    42829 2021 03 13 00 00 00 2021 03 20 00 00 00    60 1 1  0 0 0
H9
10 0 59292  57600.000000  0       -448548.891      -4517255.662      -5311859.264
10 0 59292  57660.000000  0       -592185.211      -4831040.970      -5012392.012
10 0 59292  57720.000000  0       -735999.160      -5123384.441      -4691830.376
10 0 59292  57780.000000  0       -879194.616      -5393050.960      -4351509.090
10 0 59292  57840.000000  0      -1020966.729      -5638905.090      -3992847.765
10 0 59292  57900.000000  0      -1160506.185      -5859916.198      -3617345.284
10 0 59292  57960.000000  0      -1297003.562      -6055163.141      -3226573.824
10 0 59292  58020.000000  0      -1429653.745      -6223838.513      -2822172.520
10 0 59292  58080.000000  0      -1557660.409      -6365252.433      -2405840.780
10 0 59292  58140.000000  0      -1680240.501      -6478835.821      -1979331.223
10 0 59292  58200.000000  0      -1796628.706      -6564143.110      -1544442.331
10 0 59292  58260.000000  0      -1906081.874      -6620854.392      -1103010.827
10 0 59292  58320.000000  0      -2007883.390      -6648776.974       -656903.817
10 0 59292  58380.000000  0      -2101347.447      -6647846.314       -208010.740
10 0 59292  58440.000000  0      -2185823.213      -6618126.339        241764.823
10 0 59292  58500.000000  0      -2260698.833      -6559809.133        690513.449
10 0 59292  58560.000000  0      -2325405.266      -6473214.011       1136328.239
10 0 59292  58620.000000  0      -2379419.913      -6358785.954       1577313.211
10 0 59292  58680.000000  0      -2422270.028      -6217093.427       2011591.661
10 0 59292  58740.000000  0      -2453535.860      -6048825.571       2437314.453
10 0 59292  58800.000000  0      -2472853.531      -5854788.816       2852668.173
10 0 59292  58860.000000  0      -2479917.614      -5635902.914       3255883.118
10 0 59292  58920.000000  0      -2474483.412      -5393196.428       3645241.050
10 0 59292  58980.000000  0      -2456368.919      -5127801.736       4019082.720
10 0 59292  59040.000000  0      -2425456.455      -4840949.537       4375815.088
10 0 59292  59100.000000  0      -2381693.991      -4533962.957       4713918.233
10 0 59292  59160.000000  0      -2325096.143      -4208251.223       5031951.968
10 0 59292  59220.000000  0      -2255744.792      -3865302.888       5328562.090
10 0 59292  59280.000000  0      -2173789.321      -3506678.691       5602486.125
10 0 59292  59340.000000  0      -2079446.502      -3134004.228       5852558.640
10 0 59292  59400.000000  0      -1973000.025      -2748962.360       6077716.152
10 0 59292  59460.000000  0      -1854799.676      -2353285.434       6277001.555
10 0 59292  59520.000000  0      -1725260.201      -1948747.344       6449568.137
10 0 59292  59580.000000  0      -1584859.829      -1537155.381       6594683.132
10 0 59292  59640.000000  0      -1434138.463      -1120341.931       6711730.711
10 0 59292  59700.000000  0      -1273695.585       -700156.154       6800214.402
10 0 59292  59760.000000  0      -1104187.866       -278455.740       6859759.040
10 0 59292  59820.000000  0       -926326.463        142901.329       6890112.346
10 0 59292  59880.000000  0       -740873.990        562065.069       6891146.008
10 0 59292  59940.000000  0       -548641.201        977201.731       6862856.198
10 0 59292  60000.000000  0       -350483.395       1386501.899       6805363.564
10 0 59292  60060.000000  0       -147296.573       1788188.469       6718912.756
10 0 59292  60120.000000  0         59986.667       2180524.489       6603871.383
10 0 59292  60180.000000  0        270401.438       2561820.711       6460728.465
10 0 59292  60240.000000  0        482955.055       2930442.948       6290092.460
10 0 59292  60300.000000  0        696631.727       3284819.238       6092688.795
10 0 59292  60360.000000  0        910397.423       3623446.719       5869356.852
10 0 59292  60420.000000  0       1123204.872       3944898.157       5621046.473
10 0 59292  60480.000000  0       1333998.702       4247828.142       5348814.027
10 0 59292  60540.000000  0       1541720.686       4530978.964       5053818.009
10 0 59292  60600.000000  0       1745315.079       4793186.094       4737314.118
10 0 59292  60660.000000  0       1943733.968       5033383.118       4400649.883
10 0 59292  60720.000000  0       2135942.662       5250606.226       4045258.994
10 0 59292  60780.000000  0       2320925.124       5443998.264       3672655.233
10 0 59292  60840.000000  0       2497689.295       5612812.436       3284426.021
10 0 59292  60900.000000  0       2665272.376       5756415.527       2882225.462
10 0 59292  60960.000000  0       2822746.023       5874290.375       2467767.020
10 0 59292  61020.000000  0       2969221.404       5966037.717       2042815.973
10 0 59292  61080.000000  0       3103854.043       6031377.497       1609181.669
10 0 59292  61140.000000  0       3225848.445       6070149.624       1168709.574
10 0 59292  61200.000000  0       3334462.500       6082314.135        723273.169
10 0 59292  61260.000000  0       3429011.677       6067950.795        274765.718
10 0 59292  61320.000000  0       3508872.962       6027258.076       -174908.059
10 0 59292  61380.000000  0       3573488.460       5960551.522       -623840.344
10 0 59292  61440.000000  0       3622368.643       5868261.575      -1070128.509
10 0 59292  61500.000000  0       3655095.304       5750930.923      -1511883.362
10 0 59292  61560.000000  0       3671324.173       5609211.269      -1947237.353
10 0 59292  61620.000000  0       3670787.125       5443859.572      -2374352.607
10 0 59292  61680.000000  0       3653294.007       5255733.824      -2791428.772
10 0 59292  61740.000000  0       3618734.069       5045788.375      -3196710.664
10 0 59292  61800.000000  0       3567076.971       4815068.813      -3588495.615
10 0 59292  61860.000000  0       3498373.410       4564706.497      -3965140.472
10 0 59292  61920.000000  0       3412755.405       4295912.814      -4325068.306
10 0 59292  61980.000000  0       3310436.161       4009973.128      -4666774.843
10 0 59292  62040.000000  0       3191709.527       3708240.422      -4988834.510
10 0 59292  62100.000000  0       3056949.102       3392128.705      -5289906.049
10 0 59292  62160.000000  0       2906606.990       3063106.238      -5568737.758
10 0 59292  62220.000000  0       2741212.176       2722688.615      -5824172.283
10 0 59292  62280.000000  0       2561368.559       2372431.759      -6055151.058
10 0 59292  62340.000000  0       2367752.621       2013924.771      -6260718.264
10 0 59292  62400.000000  0       2161110.822       1648782.780      -6440024.324
10 0 59292  62460.000000  0       1942256.705       1278639.779      -6592328.988
10 0 59292  62520.000000  0       1712067.727        905141.471      -6717004.013
10 0 59292  62580.000000  0       1471481.800        529938.177      -6813535.464
10 0 59292  62640.000000  0       1221493.502        154677.759      -6881525.647
10 0 59292  62700.000000  0        963149.997       -219001.451      -6920694.517
10 0 59292  62760.000000  0        697546.750       -589477.574      -6930880.595
10 0 59292  62820.000000  0        425823.052       -955151.943      -6912041.504
10 0 59292  62880.000000  0        149157.319      -1314455.720      -6864254.098
10 0 59292  62940.000000  0       -131237.784      -1665856.333      -6787714.206
10 0 59292  63000.000000  0       -414120.462      -2007863.787      -6682736.042
10 0 59292  63060.000000  0       -698225.129      -2339036.849      -6549751.137
10 0 59292  63120.000000  0       -982267.883      -2657989.034      -6389306.767
10 0 59292  63180.000000  0      -1264952.084      -2963394.276      -6202063.946
10 0 59292  63240.000000  0      -1544974.070      -3253992.363      -5988795.060
10 0 59292  63300.000000  0      -1821028.987      -3528594.123      -5750381.099
10 0 59292  63360.000000  0      -2091816.724      -3786086.357      -5487808.474
10 0 59292  63420.000000  0      -2356047.954      -4025436.511      -5202165.395
10 0 59292  63480.000000  0      -2612450.241      -4245697.010      -4894637.769
10 0 59292  63540.000000  0      -2859774.135      -4446009.207      -4566504.638
10 0 59292  63600.000000  0      -3096799.242      -4625606.946      -4219133.226
10 0 59292  63660.000000  0      -3322340.237      -4783819.737      -3853973.587
10 0 59292  63720.000000  0      -3535252.818      -4920075.541      -3472552.891
10 0 59292  63780.000000  0      -3734439.584      -5033903.134      -3076469.292
10 0 59292  63840.000000  0      -3918855.761      -5124933.992      -2667385.430
10 0 59292  63900.000000  0      -4087514.759      -5192903.716      -2247021.605
10 0 59292  63960.000000  0      -4239493.516      -5237652.989      -1817148.608
10 0 59292  64020.000000  0      -4373937.597      -5259128.022      -1379580.281
10 0 59292  64080.000000  0      -4490066.010      -5257380.508       -936165.812
10 0 59292  64140.000000  0      -4587175.706      -5232567.062       -488781.807
10 0 59292  64200.000000  0      -4664645.727      -5184948.159        -39324.198
10 0 59292  64260.000000  0      -4721941.002      -5114886.559        410300.014
10 0 59292  64320.000000  0      -4758615.742      -5022845.210        858181.118
10 0 59292  64380.000000  0      -4774316.371      -4909384.633       1302415.113
10 0 59292  64440.000000  0      -4768784.008      -4775159.804       1741112.099
10 0 59292  64500.000000  0      -4741856.474      -4620916.595       2172404.587
10 0 59292  64560.000000  0      -4693469.846      -4447487.781       2594455.746
10 0 59292  64620.000000  0      -4623659.506      -4255788.602       3005467.484
10 0 59292  64680.000000  0      -4532560.722      -4046811.967       3403688.346
10 0 59292  64740.000000  0      -4420408.717      -3821623.303       3787421.240
99
